{
    "links": {
        "self": "http://www.neowsapp.com/rest/v1/neo/3463397?api_key=iIulBulltgU6a56xZRHN4H3l9WmuAYTsLGpBGhQ2"
    },
    "id": "3463397",
    "neo_reference_id": "3463397",
    "name": "(2009 MM1)",
    "designation": "2009 MM1",
    "nasa_jpl_url": "http://ssd.jpl.nasa.gov/sbdb.cgi?sstr=3463397",
    "absolute_magnitude_h": 21.7,
    "estimated_diameter": {
        "kilometers": {
            "estimated_diameter_min": 0.1214940408,
            "estimated_diameter_max": 0.2716689341
        },
        "meters": {
            "estimated_diameter_min": 121.4940407996,
            "estimated_diameter_max": 271.6689340891
        },
        "miles": {
            "estimated_diameter_min": 0.0754928736,
            "estimated_diameter_max": 0.1688071972
        },
        "feet": {
            "estimated_diameter_min": 398.6025088171,
            "estimated_diameter_max": 891.3023057169
        }
    },
    "is_potentially_hazardous_asteroid": false,
    "close_approach_data": [
        {
            "close_approach_date": "2009-07-07",
            "close_approach_date_full": "2009-Jul-07 10:14",
            "epoch_date_close_approach": 1246961640000,
            "relative_velocity": {
                "kilometers_per_second": "6.5981380144",
                "kilometers_per_hour": "23753.2968520039",
                "miles_per_hour": "14759.3749245132"
            },
            "miss_distance": {
                "astronomical": "0.2175746161",
                "lunar": "84.6365256629",
                "kilometers": "32548699.134627707",
                "miles": "20224823.8047160766"
            },
            "orbiting_body": "Earth"
        }
    ],
    "orbital_data": {
        "orbit_id": "11",
        "orbit_determination_date": "2017-04-06 09:00:24",
        "first_observation_date": "2009-06-23",
        "last_observation_date": "2009-07-20",
        "data_arc_in_days": 27,
        "observations_used": 18,
        "orbit_uncertainty": "8",
        "minimum_orbit_intersection": ".207883",
        "jupiter_tisserand_invariant": "3.346",
        "epoch_osculation": "2455013.5",
        "eccentricity": ".4991990223449618",
        "semi_major_axis": "2.377225156984294",
        "inclination": "8.844164169218111",
        "ascending_node_longitude": "70.16031551437401",
        "orbital_period": "1338.763623025486",
        "perihelion_distance": "1.190516682723886",
        "perihelion_argument": "227.816872048787",
        "aphelion_distance": "3.563933631244702",
        "perihelion_time": "2455029.659376625368",
        "mean_anomaly": "355.6546656294815",
        "mean_motion": ".2689048266686782",
        "equinox": "J2000",
        "orbit_class": {
            "orbit_class_type": "AMO",
            "orbit_class_description": "Near-Earth asteroid orbits similar to that of 1221 Amor",
            "orbit_class_range": "1.017 AU < q (perihelion) < 1.3 AU"
        }
    },
    "is_sentry_object": false
}